NORAD_CAT_ID,OBJECT_NAME,OBJECT_TYPE,EPOCH,MEAN_MOTION,ECCENTRICITY,INCLINATION,RA_OF_ASC_NODE,ARG_OF_PERICENTER,MEAN_ANOMALY,BSTAR,MEAN_MOTION_DOT,MEAN_MOTION_DDOT,TLE_LINE0,TLE_LINE1,TLE_LINE2,SEMIMAJOR_AXIS,PERIOD,APOGEE,PERIGEE,DECAYED
50171.0,STARLINK-3286,PAYLOAD,2023-04-14 01:57:14,15.08843184,0.0001019,53.2175,330.373,84.4768,275.6341,0.00012432,1.691e-05,0.0,0 STARLINK-3286,1 50171U 21125R   23104.08141713  .00001691  00000-0  12432-3 0  9992,2 50171  53.2175 330.3730 0001019  84.4768 275.6341 15.08843184 76481,6917.871,95.437,540.441,539.031,0.0
50171.0,STARLINK-3286,PAYLOAD,2023-04-15 00:12:38,15.08842148,0.0001009,53.2175,326.2092,89.9153,270.1955,7.0064e-05,8.28e-06,0.0,0 STARLINK-3286,1 50171U 21125R   23105.00878084  .00000828  00000-0  70064-4 0  9990,2 50171  53.2175 326.2092 0001009  89.9153 270.1955 15.08842148 76135,6917.874,95.437,540.437,539.041,0.0
50171.0,STARLINK-3286,PAYLOAD,2023-04-15 20:52:39,15.08841135,0.0001114,53.2174,322.3445,78.1309,281.9808,-1.8282e-05,-5.79e-06,0.0,0 STARLINK-3286,1 50171U 21125R   23105.86990596 -.00000579  00000-0 -18282-4 0  9996,2 50171  53.2174 322.3445 0001114  78.1309 281.9808 15.08841135 76753,6917.877,95.437,540.513,538.971,0.0
50171.0,STARLINK-3286,PAYLOAD,2023-04-16 14:21:54,15.08841062,0.0001149,53.2171,319.0725,81.9152,278.1971,0.00011262,1.505e-05,0.0,0 STARLINK-3286,1 50171U 21125R   23106.59854461  .00001505  00000-0  11262-3 0  9995,2 50171  53.2171 319.0725 0001149  81.9152 278.1971 15.08841062 76860,6917.877,95.437,540.537,538.947,0.0
50171.0,STARLINK-3286,PAYLOAD,2023-04-16 20:43:26,15.08851741,0.0001139,53.2163,317.8828,84.7758,275.3364,0.0002292,3.363e-05,0.0,0 STARLINK-3286,1 50171U 21125R   23106.86350105  .00003363  00000-0  22920-3 0  9998,2 50171  53.2163 317.8828 0001139  84.7758 275.3364 15.08851741 76908,6917.845,95.437,540.497,538.922,0.0
50171.0,STARLINK-3286,PAYLOAD,2023-04-17 14:12:41,15.08842939,0.0001109,53.216,314.6118,90.6136,269.4983,0.00012912,1.768e-05,0.0,0 STARLINK-3286,1 50171U 21125R   23107.59214454  .00001768  00000-0  12912-3 0  9992,2 50171  53.2160 314.6118 0001109  90.6136 269.4983 15.08842939 77018,6917.871,95.437,540.504,538.969,0.0
50171.0,STARLINK-3286,PAYLOAD,2023-04-17 20:34:13,15.08850494,0.0001075,53.2164,313.4242,80.6047,279.5067,0.0001446,2.015e-05,0.0,0 STARLINK-3286,1 50171U 21125R   23107.85710010  .00002015  00000-0  14460-3 0  9996,2 50171  53.2164 313.4242 0001075  80.6047 279.5067 15.08850494 76568,6917.848,95.437,540.457,538.97,0.0
50171.0,STARLINK-3286,PAYLOAD,2023-04-17 22:09:36,15.08851412,0.0001095,53.2159,313.1254,83.6207,276.491,0.00022914,3.362e-05,0.0,0 STARLINK-3286,1 50171U 21125R   23107.92333987  .00003362  00000-0  22914-3 0  9997,2 50171  53.2159 313.1254 0001095  83.6207 276.4910 15.08851412 77065,6917.846,95.437,540.468,538.953,0.0
50171.0,STARLINK-3286,PAYLOAD,2023-04-18 14:03:28,15.08837781,0.0001037,53.2153,310.1511,99.3272,260.7837,-7.4896e-05,-1.479e-05,0.0,0 STARLINK-3286,1 50171U 21125R   23108.58574424 -.00001479  00000-0 -74896-4 0  9999,2 50171  53.2153 310.1511 0001037  99.3272 260.7837 15.08837781 76677,6917.887,95.438,540.47,539.035,0.0
50171.0,STARLINK-3286,PAYLOAD,2023-04-18 20:25:00,15.08844382,0.0001061,53.2154,308.9641,95.0902,265.0211,8.8257e-05,1.117e-05,0.0,0 STARLINK-3286,1 50171U 21125R   23108.85070268  .00001117  00000-0  88257-4 0  9999,2 50171  53.2154 308.9641 0001061  95.0902 265.0211 15.08844382 77206,6917.867,95.437,540.466,538.998,0.0
50171.0,STARLINK-3286,PAYLOAD,2023-04-19 05:57:19,15.08844167,9.29e-05,53.2151,307.1784,91.9621,268.1478,0.00032725,4.925e-05,0.0,0 STARLINK-3286,1 50171U 21125R   23109.24814401  .00004925  00000-0  32725-3 0  9996,2 50171  53.2151 307.1784 0000929  91.9621 268.1478 15.08844167 77263,6917.868,95.437,540.375,539.09,0.0
50171.0,STARLINK-3286,PAYLOAD,2023-04-19 17:05:01,15.08838434,0.0001033,53.2154,305.0973,96.7603,263.3506,0.00018099,2.594e-05,0.0,0 STARLINK-3286,1 50171U 21125R   23109.71182654  .00002594  00000-0  18099-3 0  9994,2 50171  53.2154 305.0973 0001033  96.7603 263.3506 15.08838434 77330,6917.885,95.438,540.465,539.036,0.0
50171.0,STARLINK-3286,PAYLOAD,2023-04-20 05:48:06,15.08841569,0.0001076,53.2158,302.7182,85.8662,274.2453,0.00023306,3.423e-05,0.0,0 STARLINK-3286,1 50171U 21125R   23110.24174565  .00003423  00000-0  23306-3 0  9995,2 50171  53.2158 302.7182 0001076  85.8662 274.2453 15.08841569 76920,6917.876,95.437,540.485,538.996,0.0
50171.0,STARLINK-3286,PAYLOAD,2023-04-20 12:09:39,15.08841273,0.0001299,53.2152,301.5293,84.3868,275.7273,0.00020623,2.996e-05,0.0,0 STARLINK-3286,1 50171U 21125R   23110.50670798  .00002996  00000-0  20623-3 0  9996,2 50171  53.2152 301.5293 0001299  84.3868 275.7273 15.08841273 77450,6917.876,95.437,540.64,538.843,0.0
50171.0,STARLINK-3286,PAYLOAD,2023-04-20 20:06:35,15.08841912,0.0001239,53.2156,300.0426,84.4361,275.6773,0.00013574,1.873e-05,0.0,0 STARLINK-3286,1 50171U 21125R   23110.83790714  .00001873  00000-0  13574-3 0  9993,2 50171  53.2156 300.0426 0001239  84.4361 275.6773 15.08841912 77509,6917.875,95.437,540.597,538.882,0.0
50171.0,STARLINK-3286,PAYLOAD,2023-04-21 18:21:59,15.08841519,0.0001234,53.2161,295.8804,79.8607,280.2525,0.00012122,1.642e-05,0.0,0 STARLINK-3286,1 50171U 21125R   23111.76526808  .00001642  00000-0  12122-3 0  9999,2 50171  53.2161 295.8804 0001234  79.8607 280.2525 15.08841519 77153,6917.876,95.437,540.594,538.887,0.0
50171.0,STARLINK-3286,PAYLOAD,2023-04-21 21:32:45,15.08844472,0.0001278,53.2165,295.2856,76.5196,283.5938,0.00014435,2.01e-05,0.0,0 STARLINK-3286,1 50171U 21125R   23111.89774757  .00002010  00000-0  14435-3 0  9990,2 50171  53.2165 295.2856 0001278  76.5196 283.5938 15.08844472 77664,6917.867,95.437,540.616,538.848,0.0
50171.0,STARLINK-3286,PAYLOAD,2023-04-22 11:51:13,15.08842084,0.000127,53.2154,292.6086,69.6573,290.4555,0.00013241,1.82e-05,0.0,0 STARLINK-3286,1 50171U 21125R   23112.49390885  .00001820  00000-0  13241-3 0  9995,2 50171  53.2154 292.6086 0001270  69.6573 290.4555 15.08842084 77751,6917.874,95.437,540.618,538.86,0.0
50171.0,STARLINK-3286,PAYLOAD,2023-04-22 19:48:09,15.08845983,0.0001164,53.2147,291.1214,63.2215,296.8896,0.00015871,2.239e-05,0.0,0 STARLINK-3286,1 50171U 21125R   23112.82510603  .00002239  00000-0  15871-3 0  9990,2 50171  53.2147 291.1214 0001164  63.2215 296.8896 15.08845983 77316,6917.862,95.437,540.532,538.922,0.0
50171.0,STARLINK-3286,PAYLOAD,2023-04-23 11:42:00,15.08841804,9.34e-05,53.2164,288.1477,70.1402,289.969,3.1301e-05,2.1e-06,0.0,0 STARLINK-3286,1 50171U 21125R   23113.48750978  .00000210  00000-0  31301-4 0  9998,2 50171  53.2164 288.1477 0000934  70.1402 289.9690 15.08841804 77415,6917.875,95.437,540.386,539.094,0.0
50171.0,STARLINK-3286,PAYLOAD,2023-04-23 19:38:56,15.08847005,0.0001221,53.2152,286.6609,72.6753,287.4372,0.00013066,1.793e-05,0.0,0 STARLINK-3286,1 50171U 21125R   23113.81870767  .00001793  00000-0  13066-3 0  9998,2 50171  53.2152 286.6609 0001221  72.6753 287.4372 15.08847005 77956,6917.859,95.437,540.569,538.879,0.0
50171.0,STARLINK-3286,PAYLOAD,2023-04-24 11:32:47,15.08861494,0.0001083,53.216,283.6866,74.4686,285.6426,0.00041767,6.369e-05,0.0,0 STARLINK-3286,1 50171U 21125R   23114.48109956  .00006369  00000-0  41767-3 0  9990,2 50171  53.2160 283.6866 0001083  74.4686 285.6426 15.08861494 77563,6917.815,95.436,540.429,538.93,0.0
50171.0,STARLINK-3286,PAYLOAD,2023-04-25 11:23:35,15.08805361,0.0001248,53.217,279.2243,131.022,229.088,-0.00072166,-0.00011744,0.0,0 STARLINK-3286,1 50171U 21125R   23115.47472155 -.00011744  00000-0 -72166-3 0  9996,2 50171  53.2170 279.2243 0001248 131.0220 229.0880 15.08805361 77715,6917.986,95.44,540.715,538.988,0.0
50171.0,STARLINK-3286,PAYLOAD,2023-04-26 12:49:46,15.08840183,0.0001062,53.2169,274.465,102.1353,257.9758,0.0002773,4.128e-05,0.0,0 STARLINK-3286,1 50171U 21125R   23116.53456078  .00004128  00000-0  27730-3 0  9993,2 50171  53.2169 274.4650 0001062 102.1353 257.9758 15.08840183 78369,6917.88,95.438,540.48,539.01,0.0
50171.0,STARLINK-3286,PAYLOAD,2023-04-26 17:35:55,15.08847788,0.0001158,53.2148,273.5764,100.2501,259.8622,0.00048674,7.469e-05,0.0,0 STARLINK-3286,1 50171U 21125R   23116.73327946  .00007469  00000-0  48674-3 0  9997,2 50171  53.2148 273.5764 0001158 100.2501 259.8622 15.08847788 78394,6917.857,95.437,540.523,538.92,0.0
50171.0,STARLINK-3286,PAYLOAD,2023-04-27 03:08:14,15.08847273,0.0001017,53.2151,271.7928,101.2814,258.8293,0.00074055,0.0001152,0.0,0 STARLINK-3286,1 50171U 21125R   23117.13072419  .00011520  00000-0  74055-3 0  9999,2 50171  53.2151 271.7928 0001017 101.2814 258.8293 15.08847273 77966,6917.858,95.437,540.427,539.02,0.0
50171.0,STARLINK-3286,PAYLOAD,2023-04-27 12:40:33,15.08840259,0.0001249,53.215,270.0081,106.2905,253.8225,0.00046269,7.084e-05,0.0,0 STARLINK-3286,1 50171U 21125R   23117.52816593  .00007084  00000-0  46269-3 0  9997,2 50171  53.2150 270.0081 0001249 106.2905 253.8225 15.08840259 78519,6917.88,95.438,540.609,538.881,0.0
50171.0,STARLINK-3286,PAYLOAD,2023-04-27 19:02:05,15.08851013,4.52e-05,53.2169,268.8188,89.4064,270.698,0.00067918,0.00010541,0.0,0 STARLINK-3286,1 50171U 21125R   23117.79311775  .00010541  00000-0  67918-3 0  9994,2 50171  53.2169 268.8188 0000452  89.4064 270.6980 15.08851013 78060,6917.847,95.437,540.024,539.399,0.0
50171.0,STARLINK-3286,PAYLOAD,2023-04-28 09:20:33,15.08849607,0.0001368,53.2138,266.1443,83.2384,276.8764,7.445e-06,-1.69e-06,0.0,0 STARLINK-3286,1 50171U 21125R   23118.38927677 -.00000169  00000-0  74450-5 0  9991,2 50171  53.2138 266.1443 0001368  83.2384 276.8764 15.08849607 78159,6917.851,95.437,540.662,538.77,0.0
50171.0,STARLINK-3286,PAYLOAD,2023-04-29 13:57:29,15.08844337,0.0001137,53.2151,260.7897,87.0124,273.0998,1.161e-05,-1.03e-06,0.0,0 STARLINK-3286,1 50171U 21125R   23119.58159495 -.00000103  00000-0  11610-4 0  9995,2 50171  53.2151 260.7897 0001137  87.0124 273.0998 15.08844337 78822,6917.867,95.437,540.519,538.946,0.0
